#dP2018  1  6  0  0  0.00000000      96 __u+U ITR00 FIT  IAC
## 1982 518400.00000000   900.00000000 58124 0.0000000000000
+   89   C01C02C03C04C05C06C07C08C09C10C11C12C13C14E01E02E03
+        E04E05E07E08E09E11E12E14E18E19E24E26E30G01G02G03G04
+        G05G06G07G08G09G10G11G12G13G14G15G16G17G18G19G20G21
+        G22G23G24G25G26G27G28G29G30G31G32J01J02J03R01R02R03
+        R04R05R06R07R08R09R10R11R13R14R15R16R17R18R19R20R21
+        R22R23R24R26  0  0  0  0  0  0  0  0  0  0  0  0  0
++         0  0  0  0  0  0  0  0  0  0  0  0  0  0  0  0  0
++         0  0  0  0  0  0  0  0  0  0  0  0  0  0  0  0  0
++         0  0  0  0  0  0  0  0  0  0  0  0  0  0  0  0  0
++         0  0  0  0  0  0  0  0  0  0  0  0  0  0  0  0  0
++         0  0  0  0  0  0  0  0  0  0  0  0  0  0  0  0  0
++         0  0  0  0  0  0  0  0  0  0  0  0  0  0  0  0  0
%c M  cc GPS ccc cccc cccc cccc cccc ccccc ccccc ccccc ccccc
%c cc cc ccc ccc cccc cccc cccc cccc ccccc ccccc ccccc ccccc
%f  0.0000000  0.000000000  0.00000000000  0.000000000000000
%f  0.0000000  0.000000000  0.00000000000  0.000000000000000
%i    0    0    0    0      0      0      0      0         0
%i    0    0    0    0      0      0      0      0         0
/*                                                          
/*   RSA / INFORMATION & ANALYSIS CENTER (IAC) OF MCC       
/*   ULTRA-RAPID DETERMINATION                              
/* PCV:IGS14_1977 OL/AL:FES2004  NONE     YN ORB:CoN CLK:CoN
*  2018 01 06 12 30  0.00000000
PC01 -32300.561248  27104.494204    959.269744    205.338926
PC02   4401.148215  41924.491619  -1006.917859   -134.877287
PC03 -14743.805692  39487.012516    179.745332   -334.981856
PC04 -39640.149441  14451.743793    443.436517   -202.590350
PC05  21851.859470  36014.165255  -1374.654724   -113.423107
PC06  -9132.149351  34371.019409 -22193.193151   -669.782003
PC07 -16213.954231  21197.689594  32700.165310   -264.799451
PC08 -25061.724444  32251.946984 -10866.293298     97.402454
PC09    263.684632  40964.013743  -9159.074911   -530.256748
PC10    937.148382  26168.491575  33202.364828     75.421455
PC11 -18092.574610  12759.405997  17099.060658   -342.335055
PC12 -13295.346346  -8208.430097  23175.393573    369.389045
PC13 -12686.077987  33221.622200 -22827.580619   -130.026880
PC14 -18100.800008    792.982440 -21194.518358    125.633818
PE01   8995.138890  17022.440039  22486.777963   -246.809967
PE02  -9032.808548 -17019.172447 -22469.997187      0.942798
PE03  -7449.633405 -28597.895087   1581.760569     15.684750
PE04  17246.260750  18087.929317  15855.184232     49.365444
PE05   6740.705763 -22390.817136  18144.846834    346.996625
PE07 -16962.087576   3087.818867 -24060.461881    106.697001
PE08 -17334.017190 -17966.789081 -15898.996389   6666.589187
PE09  16819.764825  -3119.405731  24157.080465   6911.170539
PE11  23428.853272 -11878.728571 -13654.858981   1854.245643
PE12  15814.953518   6795.376286 -24072.408847   3221.076123
PE14  -2947.109121  26157.268475  -3434.700973   6652.374492
PE18  13748.261707 -25818.427032  -8809.440280   6524.394708
PE19   6274.916040  28717.875431  -3451.258758     18.067879
PE24  27555.991062   -790.445265 -10759.463629   6931.049177
PE26 -17484.223295  23444.764252  -4589.577021   6417.021192
PE30 -25986.398811 -11559.244750  -8227.136517   6182.547782
PG01   -589.860636  15884.170041 -21367.720606    -22.042230
PG02  20670.496696 -14982.353440   7298.337887    235.574253
PG03   8758.258697  20325.851779 -14737.483617    -14.639407
PG04 -21245.454969  -4759.040335  15173.367553     30.271192
PG05  11164.692810 -10841.360714  21431.588404    -17.698713
PG06  25333.849244  -6885.665236  -4040.773832    414.521328
PG07  15908.740245   8868.145622  19682.416119    255.430610
PG08  -5433.451505  25820.189484   2439.197347    -86.738891
PG09   9624.914858  17949.799349  17006.161171    490.573155
PG10 -22749.416446  -8432.918920 -10949.453052    141.819759
PG11  -2503.156461  20993.608744 -16713.275518   -733.164312
PG12  -5490.812019 -20040.556665 -16829.432086    356.824757
PG13  12285.167826 -21875.614953   8616.685232    -95.199344
PG14 -15825.188603   8410.408348 -19270.454784    -91.922677
PG15   2633.228285 -26195.173036    834.145734   -357.393217
PG16 -11049.437905   9550.270917  22061.018113     34.467370
PG17  14513.855360   1736.703551 -21789.630819   -132.856533
PG18 -21345.762704 -15956.442702    572.109348    633.590506
PG19  15951.727317  -7035.016849 -20378.330529   -465.404723
PG20  -7449.211037 -19437.777639  16371.561867    497.578579
PG21 -17733.343371  -7415.149583  19148.464766   -444.710287
PG22   1750.742360  18599.480709 -18633.411245   -247.648238
PG23   2499.595819  24951.949577   8328.679612   -219.076846
PG24   3456.269764 -17232.152964 -19939.192390    -44.439770
PG25 -16835.709848 -19605.092305  -6805.964716   -517.908505
PG26 -19080.334706   1600.978143  18459.919851   -297.488569
PG27 -12200.864313  19101.825624  13589.632002    360.974578
PG28  21360.244806  13306.760647  -7797.796767    677.451678
PG29  -5220.571443 -21596.153080  14556.539187    514.968689
PG30  22685.299388   2973.557806  13615.237740    114.830732
PG31 -25718.843816   6891.353720  -2890.859965    150.486867
PG32 -15391.924366    -65.901044 -21619.195928   -532.352549
PJ01 -23534.479228  18028.160269 -25380.147095 999999.999999
PJ02      0.000000      0.000000      0.000000 999999.999999
PJ03 -26213.504543  28189.084188  22344.724602      1.116427
PR01  15197.385417  13539.278363  15379.456795     20.308807
PR02   9352.022077  -5754.016554  23054.128151    288.820798
PR03  -1539.307355 -20122.847989  15656.369107    120.637784
PR04 -11794.195690 -22590.273342  -1283.357206    244.945305
PR05 -15150.609353 -12063.350671 -16611.926202   -225.166677
PR06  -9013.757164   6759.911087 -22901.464953    124.644465
PR07   1787.473461  20285.914953 -15313.610870    -26.762916
PR08  11519.784668  22748.776204    719.535410    -27.008918
PR09 -22067.646368   4012.519421  12105.751880     47.993621
PR10  -6279.266424   9889.554668  22631.112753     15.357764
PR11  13151.412009  10274.547042  19322.008043    -18.723883
PR13  21489.748731  -4699.519649 -12930.623367     -6.232803
PR14   6713.555081 -10077.626980 -22437.229773     23.638988
PR15  -9825.459883 -10476.585641 -21097.754819     -4.888874
PR16 -24628.074025  -4116.110002  -5518.584054     82.723135
PR17  11647.273115 -21894.155514   5904.648211     98.868838
PR18    239.938213 -16325.591446  19638.350131    180.072696
PR19 -11606.270594  -1407.610035  22676.252720    -40.224566
PR20 -17079.874780  14985.810391  11555.190693   -322.386922
PR21 -11555.925448  21927.938625  -6076.664211     17.732869
PR22   1093.956118  14976.661294 -20571.993165     -7.983548
PR23  13269.736258  -1881.950202 -21705.190138    128.674020
PR24  16833.354893 -15697.313142 -11027.238019   -160.723049
PR26 -16831.163291  15342.019572  11528.500871 999999.999999
EOF
